COSMOS 1933             
1 18958U 88020A   22129.20479060  .00001606  00000+0  11263-3 0  9991
2 18958  82.5297 178.3304 0010318 327.1835  32.8750 15.04504016860076
SL-3 R/B                
1 19046U 88032B   22128.92732533  .00001830  00000+0  13627-3 0  9993
2 19046  97.3937 129.6289 0037099  17.4977 342.7518 15.03591706840672
SL-16 R/B               
1 19120U 88039B   22129.47643501 -.00000174  00000+0 -59994-4 0  9990
2 19120  71.0127 148.3298 0023264 322.6674  37.2833 14.19244406759962
COSMOS 1953             
1 19210U 88050A   22128.90635181  .00002351  00000+0  15459-3 0  9999
2 19210  82.5128  99.2578 0009954 283.5455  76.4664 15.07117618825601
SL-8 R/B                
1 19257U 88053B   22128.88679420  .00000157  00000+0  60869-4 0  9992
2 19257  74.0475 171.3602 0021014 336.1564 198.5660 14.37591213775212
COSMOS 1975             
1 19573U 88093A   22128.85352831  .00002481  00000+0  16794-3 0  9997
2 19573  82.5199  55.0880 0012894 338.1764  21.8912 15.06032536807327
SL-14 R/B               
1 19574U 88093B   22129.18965759  .00000319  00000+0  35841-4 0  9997
2 19574  82.5306 274.0823 0021164 348.2655 185.2893 14.83480086814354
SL-16 R/B               
1 19650U 88102B   22128.68680303 -.00000158  00000+0 -55988-4 0  9993
2 19650  71.0009 218.4624 0015199 335.1555  24.8835 14.15828257728571
INTERCOSMOS 24          
1 20261U 89080A   22128.86424686  .00000171  00000+0  51017-4 0  9991
2 20261  82.5989 293.3878 1201051 294.5716  53.4905 12.56339568490689
SL-14 R/B               
1 20262U 89080C   22129.33595357  .00000279  00000+0  75944-4 0  9993
2 20262  82.5951 351.3618 1237049 141.7452 227.8337 12.49052581484815
DELTA 2 R/B(1)          
1 20303U 89085B   22129.28036820  .00012097  00000+0  31848-3 0  9998
2 20303  35.6406 336.8536 0081564 220.6185 138.8439 15.34374575773890
DELTA 1 R/B             
1 20323U 89089B   22129.53449292  .00000197  00000+0  60145-4 0  9994
2 20323  97.0837 177.4816 0070699 215.9630 143.6798 14.48501301713430
ARIANE 40 R/B           
1 20443U 90005H   22129.18078290  .00000165  00000+0  68522-4 0  9996
2 20443  98.4851 197.4218 0011613  84.7520 275.4992 14.38214025691655
DELTA 2 R/B(1)          
1 20453U 90008B   22128.74887722  .00009111  00000+0  47702-3 0  9995
2 20453  35.6237 138.8189 0268330 317.0985  40.9080 14.89153758713985
COSMOS 2058             
1 20465U 90010A   22129.48889947  .00001460  00000+0  11876-3 0  9996
2 20465  82.4876 328.1454 0016064  35.7781 324.4515 14.98773884752905
SL-14 R/B               
1 20466U 90010B   22128.77583197  .00000249  00000+0  28721-4 0  9998
2 20466  82.5006 140.7019 0019300 226.5434 133.4175 14.81523443720932
SL-14 R/B               
1 20511U 90018B   22129.17548574  .00000324  00000+0  39564-4 0  9993
2 20511  82.5219  89.7923 0017885  17.5728 353.4247 14.80176295736383
HST                     
1 20580U 90037B   22128.84097035  .00002224  00000+0  12113-3 0  9995
2 20580  28.4705  71.2490 0002513 332.0868  57.4008 15.10400705560229
SL-16 R/B               
1 20625U 90046B   22129.33210375 -.00000089  00000+0 -21517-4 0  9992
2 20625  71.0000 358.0438 0016482 271.7987  88.1248 14.14686765650570
COSMOS 2084             
1 20663U 90055A   22129.38945627  .00001393  00000+0  13627-3 0  9993
2 20663  62.7945  20.3392 0113595  45.8976 315.1397 14.92749774726473
SL-6 R/B(2)             
1 20666U 90055D   22129.18960786  .00001502  00000+0  13995-3 0  9997
2 20666  62.7837 295.6340 0128004  68.6791 292.7911 14.93063759727864
SL-8 R/B                
1 20775U 90078B   22128.76617437  .00006137  00000+0  29107-3 0  9999
2 20775  82.9282  15.8981 0553355 210.7005 146.0717 14.39190103604813
SL-8 R/B                
1 21088U 91006B   22129.55312722 -.00000033  00000+0 -48459-4 0  9999
2 21088  82.9392 131.3945 0022595   0.0167 120.6095 13.77197064571604
OKEAN-3                 
1 21397U 91039A   22128.77075561  .00001294  00000+0  11990-3 0  9995
2 21397  82.5229 240.3000 0017924  23.2982 336.9047 14.93595244655251
COSMOS 2151             
1 21422U 91042A   22128.84028168  .00000829  00000+0  77975-4 0  9996
2 21422  82.5006 345.5102 0015639  86.3960 273.9049 14.92597386653776
SL-14 R/B               
1 21423U 91042B   22128.89718434  .00000295  00000+0  35910-4 0  9994
2 21423  82.4924  91.5629 0018199 152.6126 207.6051 14.79922475645776
ERS-1                   
1 21574U 91050A   22129.17237870  .00000148  00000+0  63616-4 0  9993
2 21574  98.6949  97.5286 0033691  36.4808 323.8665 14.37891673614355
ARIANE 40 R/B           
1 21610U 91050F   22128.77647051  .00000198  00000+0  74934-4 0  9995
2 21610  98.3825 199.0544 0003026   9.6313 102.9089 14.41045564617111
INTERCOSMOS 25          
1 21819U 91086A   22128.78960938  .00000868  00000+0  17593-3 0  9999
2 21819  82.5787  72.4629 1513930 240.4605 103.7243 12.05664892327457
SL-8 R/B                
1 21876U 92008B   22128.83818976  .00000055  00000+0  40633-4 0  9997
2 21876  82.9292 229.2553 0036170  86.9813  31.8808 13.75697797516795
SL-8 R/B                
1 21938U 92020B   22129.48048994 -.00000028  00000+0 -45159-4 0  9997
2 21938  82.9270 113.5356 0027882 244.5392 228.8179 13.75302990508956
COSMOS 2219             
1 22219U 92076A   22129.18360775 -.00000161  00000+0 -60160-4 0  9999
2 22219  71.0620  64.7456 0018215 188.3646 171.7175 14.13693778520756
SL-16 R/B               
1 22220U 92076B   22129.10664436 -.00000221  00000+0 -87029-4 0  9994
2 22220  71.0006 257.6885 0010732  65.6954 106.4920 14.16495119523804
COSMOS 2221             
1 22236U 92080A   22129.20635036  .00000725  00000+0  75430-4 0  9991
2 22236  82.5078 170.8156 0016530 182.7622 177.3507 14.88406816593045
SL-16 R/B               
1 22285U 92093B   22129.07858416  .00000131  00000+0  92189-4 0  9994
2 22285  71.0221  63.6094 0006332 277.2226  82.8177 14.15080708515316
COSMOS 2228             
1 22286U 92094A   22129.45814912  .00000973  00000+0  10142-3 0  9993
2 22286  82.5172 127.6416 0019535 308.3655  51.5806 14.88653596588299
SL-16 R/B               
1 22566U 93016B   22129.49933589  .00000155  00000+0  10474-3 0  9995
2 22566  71.0078 275.1550 0012352 289.9323  70.0468 14.15003418504090
COSMOS 2242             
1 22626U 93024A   22129.16983582  .00000817  00000+0  85144-4 0  9995
2 22626  82.5205 156.3355 0017358 309.9171  50.0520 14.88485788571886
SL-16 R/B               
1 22803U 93059B   22128.87802826 -.00000168  00000+0 -60004-4 0  9997
2 22803  70.9899  84.2165 0017627 192.2473 167.8224 14.16860771481099
ARIANE 40 R/B           
1 22830U 93061H   22129.09952426  .00000114  00000+0  59693-4 0  9998
2 22830  98.6659 191.9788 0012124  95.8082 264.4483 14.31543184493882
COSMOS 2278             
1 23087U 94023A   22128.70850784 -.00000073  00000+0 -13731-4 0  9992
2 23087  71.0558 224.8491 0009111 352.2818   7.8163 14.13869284446756
SL-16 R/B               
1 23088U 94023B   22129.14702533 -.00000198  00000+0 -78000-4 0  9998
2 23088  70.9975 131.3777 0005860 267.7136  92.3316 14.14707391448265
SL-16 R/B               
1 23343U 94074B   22128.91500818  .00000276  00000+0  46225-4 0  9993
2 23343  97.8964 182.6939 0008285  85.9026  87.4745 14.77008234480329
SL-16 R/B               
1 23405U 94077B   22128.89344068  .00000008  00000+0  28824-4 0  9993
2 23405  70.9848  58.6823 0001755 193.7568 166.3507 14.15258903418022
ERS-2                   
1 23560U 95021A   22129.43548562  .00005707  00000+0  22408-3 0  9993
2 23560  98.5080  29.4521 0002778   2.9955 357.1297 15.26209650447392
ARIANE 40+ R/B          
1 23561U 95021B   22129.16854941  .00000179  00000+0  73894-4 0  9999
2 23561  98.6259 186.3153 0006977  13.6331  48.9406 14.38130266418065
SL-16 R/B               
1 23705U 95058B   22129.03878161 -.00000014  00000+0  17124-4 0  9998
2 23705  71.0234 239.9843 0010240  95.1992 265.0299 14.15175491369971
SL-16 R/B               
1 24298U 96051B   22128.79548088  .00000019  00000+0  36836-4 0  9999
2 24298  70.8191 254.4973 0012826  43.3742 316.8385 14.12407419323835
ORBVIEW 2 (SEASTAR)     
1 24883U 97037A   22128.86736581  .00000204  00000+0  89498-4 0  9997
2 24883  98.6744 252.1192 0001765 199.0062 161.1057 14.33721524307635
SL-16 R/B               
1 25400U 98043G   22129.54140178  .00000040  00000+0  35268-4 0  9992
2 25400  98.6710  66.0921 0010865 119.0089 241.2181 14.25510164239705
SL-16 R/B               
1 25407U 98045B   22129.51549012 -.00000022  00000+0  13249-4 0  9994
2 25407  71.0115 245.1954 0007755 343.5883  16.4988 14.15856701229167
ISS (ZARYA)             
1 25544U 98067A   22129.58282951  .00006171  00000+0  11599-3 0  9998
2 25544  51.6430 167.7714 0006730  80.7772  54.6211 15.50001021339190
CZ-4B R/B               
1 25732U 99025C   22129.40657640  .00000010  00000+0  26505-4 0  9994
2 25732  98.8579 170.8662 0038000  40.4672 330.3066 14.17725314189869
OKEAN-O                 
1 25860U 99039A   22129.09335650  .00000363  00000+0  59081-4 0  9996
2 25860  98.1427 168.6103 0001535 113.5067 246.6304 14.76911421227536
SL-16 R/B               
1 25861U 99039B   22128.82641172  .00000351  00000+0  55032-4 0  9995
2 25861  98.1820 155.1644 0016966  99.7291 260.5836 14.78793446229649
DELTA 2 R/B             
1 25876U 99041E   22129.33798041  .00000175  00000+0  69330-4 0  9999
2 25876  51.7643 102.1840 0529605 199.5449 158.4473 14.05001293165740
HELIOS 1B               
1 25977U 99064A   22128.79197100  .00000428  00000+0  60113-4 0  9995
2 25977  98.3238 321.4010 0000230  28.3631 331.7594 14.82746764477407
TERRA                   
1 25994U 99068A   22129.48082726  .00000265  00000+0  68574-4 0  9990
2 25994  98.1381 202.2909 0001417  97.6495  12.8034 14.57150636190947
SL-16 R/B               
1 26070U 00006B   22128.81438758 -.00000204  00000+0 -79761-4 0  9991
2 26070  71.0010 162.5188 0015654 161.9947 198.1733 14.15488142150304
